{
  "type": "FeatureCollection",
  "features": [
    {
      "type": "Feature",
      "properties": {
        "block_id": 1,
        "area_pixels": 2346,
        "area_hectares": 2.11,
        "perimeter_pixels": 233.6,
        "centroid": [
          226.3,
          70.2
        ],
        "eccentricity": 0.827,
        "solidity": 0.85
      },
      "geometry": {
        "type": "Polygon",
        "coordinates": [
          [
            [
              250.0,
              95.5
            ],
            [
              249.5,
              95.0
            ],
            [
              249.0,
              94.5
            ],
            [
              248.0,
              94.5
            ],
            [
              247.0,
              94.5
            ],
            [
              246.0,
              94.5
            ],
            [
              245.0,
              94.5
            ],
            [
              244.5,
              94.0
            ],
            [
              244.0,
              93.5
            ],
            [
              243.0,
              93.5
            ],
            [
              242.5,
              93.0
            ],
            [
              242.0,
              92.5
            ],
            [
              241.0,
              92.5
            ],
            [
              240.5,
              92.0
            ],
            [
              240.0,
              91.5
            ],
            [
              239.5,
              91.0
            ],
            [
              239.0,
              90.5
            ],
            [
              238.5,
              90.0
            ],
            [
              238.0,
              89.5
            ],
            [
              237.5,
              89.0
            ],
            [
              237.5,
              88.0
            ],
            [
              237.0,
              87.5
            ],
            [
              236.5,
              87.0
            ],
            [
              236.5,
              86.0
            ],
            [
              236.0,
              85.5
            ],
            [
              235.5,
              85.0
            ],
            [
              235.5,
              84.0
            ],
            [
              235.5,
              83.0
            ],
            [
              235.0,
              82.5
            ],
            [
              234.5,
              82.0
            ],
            [
              234.5,
              81.0
            ],
            [
              234.0,
              80.5
            ],
            [
              233.0,
              80.5
            ],
            [
              232.5,
              80.0
            ],
            [
              232.0,
              79.5
            ],
            [
              231.5,
              80.0
            ],
            [
              231.0,
              80.5
            ],
            [
              230.0,
              80.5
            ],
            [
              229.5,
              81.0
            ],
            [
              229.0,
              81.5
            ],
            [
              228.5,
              82.0
            ],
            [
              228.0,
              82.5
            ],
            [
              227.5,
              83.0
            ],
            [
              227.0,
              83.5
            ],
            [
              226.5,
              84.0
            ],
            [
              226.0,
              84.5
            ],
            [
              225.5,
              85.0
            ],
            [
              225.0,
              85.5
            ],
            [
              224.5,
              86.0
            ],
            [
              224.0,
              86.5
            ],
            [
              223.5,
              87.0
            ],
            [
              223.0,
              87.5
            ],
            [
              222.5,
              88.0
            ],
            [
              222.0,
              88.5
            ],
            [
              221.5,
              89.0
            ],
            [
              221.0,
              89.5
            ],
            [
              220.5,
              90.0
            ],
            [
              220.0,
              90.5
            ],
            [
              219.5,
              90.0
            ],
            [
              219.0,
              89.5
            ],
            [
              218.0,
              89.5
            ],
            [
              217.0,
              89.5
            ],
            [
              216.5,
              89.0
            ],
            [
              216.0,
              88.5
            ],
            [
              215.0,
              88.5
            ],
            [
              214.0,
              88.5
            ],
            [
              213.5,
              88.0
            ],
            [
              213.0,
              87.5
            ],
            [
              212.0,
              87.5
            ],
            [
              211.0,
              87.5
            ],
            [
              210.5,
              87.0
            ],
            [
              210.0,
              86.5
            ],
            [
              209.0,
              86.5
            ],
            [
              208.0,
              86.5
            ],
            [
              207.5,
              86.0
            ],
            [
              207.0,
              85.5
            ],
            [
              206.0,
              85.5
            ],
            [
              205.0,
              85.5
            ],
            [
              204.5,
              85.0
            ],
            [
              204.0,
              84.5
            ],
            [
              203.0,
              84.5
            ],
            [
              202.0,
              84.5
            ],
            [
              201.5,
              84.0
            ],
            [
              201.0,
              83.5
            ],
            [
              200.0,
              83.5
            ],
            [
              199.0,
              83.5
            ],
            [
              198.5,
              83.0
            ],
            [
              198.0,
              82.5
            ],
            [
              197.0,
              82.5
            ],
            [
              196.0,
              82.5
            ],
            [
              195.5,
              82.0
            ],
            [
              195.0,
              81.5
            ],
            [
              194.0,
              81.5
            ],
            [
              193.0,
              81.5
            ],
            [
              192.5,
              81.0
            ],
            [
              192.0,
              80.5
            ],
            [
              191.5,
              80.0
            ],
            [
              191.0,
              79.5
            ],
            [
              190.5,
              79.0
            ],
            [
              190.5,
              78.0
            ],
            [
              190.5,
              77.0
            ],
            [
              191.0,
              76.5
            ],
            [
              191.5,
              76.0
            ],
            [
              191.5,
              75.0
            ],
            [
              191.5,
              74.0
            ],
            [
              192.0,
              73.5
            ],
            [
              192.5,
              73.0
            ],
            [
              192.5,
              72.0
            ],
            [
              192.5,
              71.0
            ],
            [
              193.0,
              70.5
            ],
            [
              193.5,
              70.0
            ],
            [
              193.5,
              69.0
            ],
            [
              193.5,
              68.0
            ],
            [
              194.0,
              67.5
            ],
            [
              194.5,
              67.0
            ],
            [
              194.5,
              66.0
            ],
            [
              194.5,
              65.0
            ],
            [
              195.0,
              64.5
            ],
            [
              195.5,
              64.0
            ],
            [
              195.5,
              63.0
            ],
            [
              195.5,
              62.0
            ],
            [
              196.0,
              61.5
            ],
            [
              196.5,
              61.0
            ],
            [
              196.5,
              60.0
            ],
            [
              196.5,
              59.0
            ],
            [
              197.0,
              58.5
            ],
            [
              197.5,
              58.0
            ],
            [
              197.5,
              57.0
            ],
            [
              197.5,
              56.0
            ],
            [
              198.0,
              55.5
            ],
            [
              198.5,
              55.0
            ],
            [
              198.5,
              54.0
            ],
            [
              198.5,
              53.0
            ],
            [
              199.0,
              52.5
            ],
            [
              199.5,
              52.0
            ],
            [
              200.0,
              51.5
            ],
            [
              200.5,
              51.0
            ],
            [
              201.0,
              50.5
            ],
            [
              201.5,
              50.0
            ],
            [
              202.0,
              49.5
            ],
            [
              202.5,
              49.0
            ],
            [
              203.0,
              48.5
            ],
            [
              204.0,
              48.5
            ],
            [
              205.0,
              48.5
            ],
            [
              205.5,
              48.0
            ],
            [
              206.0,
              47.5
            ],
            [
              207.0,
              47.5
            ],
            [
              208.0,
              47.5
            ],
            [
              208.5,
              47.0
            ],
            [
              209.0,
              46.5
            ],
            [
              210.0,
              46.5
            ],
            [
              211.0,
              46.5
            ],
            [
              211.5,
              46.0
            ],
            [
              212.0,
              45.5
            ],
            [
              213.0,
              45.5
            ],
            [
              214.0,
              45.5
            ],
            [
              214.5,
              45.0
            ],
            [
              215.0,
              44.5
            ],
            [
              216.0,
              44.5
            ],
            [
              217.0,
              44.5
            ],
            [
              217.5,
              44.0
            ],
            [
              218.0,
              43.5
            ],
            [
              219.0,
              43.5
            ],
            [
              220.0,
              43.5
            ],
            [
              220.5,
              43.0
            ],
            [
              221.0,
              42.5
            ],
            [
              222.0,
              42.5
            ],
            [
              223.0,
              42.5
            ],
            [
              223.5,
              42.0
            ],
            [
              224.0,
              41.5
            ],
            [
              225.0,
              41.5
            ],
            [
              226.0,
              41.5
            ],
            [
              226.5,
              41.0
            ],
            [
              227.0,
              40.5
            ],
            [
              228.0,
              40.5
            ],
            [
              229.0,
              40.5
            ],
            [
              229.5,
              41.0
            ],
            [
              230.0,
              41.5
            ],
            [
              230.5,
              42.0
            ],
            [
              231.0,
              42.5
            ],
            [
              231.5,
              43.0
            ],
            [
              231.5,
              44.0
            ],
            [
              231.5,
              45.0
            ],
            [
              232.0,
              45.5
            ],
            [
              232.5,
              46.0
            ],
            [
              232.5,
              47.0
            ],
            [
              232.5,
              48.0
            ],
            [
              233.0,
              48.5
            ],
            [
              233.5,
              49.0
            ],
            [
              233.5,
              50.0
            ],
            [
              233.5,
              51.0
            ],
            [
              234.0,
              51.5
            ],
            [
              234.5,
              52.0
            ],
            [
              234.5,
              53.0
            ],
            [
              234.5,
              54.0
            ],
            [
              235.0,
              54.5
            ],
            [
              235.5,
              55.0
            ],
            [
              235.5,
              56.0
            ],
            [
              235.5,
              57.0
            ],
            [
              236.0,
              57.5
            ],
            [
              236.5,
              58.0
            ],
            [
              236.5,
              59.0
            ],
            [
              236.5,
              60.0
            ],
            [
              237.0,
              60.5
            ],
            [
              237.5,
              61.0
            ],
            [
              237.5,
              62.0
            ],
            [
              237.5,
              63.0
            ],
            [
              238.0,
              63.5
            ],
            [
              238.5,
              64.0
            ],
            [
              238.5,
              65.0
            ],
            [
              239.0,
              65.5
            ],
            [
              239.5,
              66.0
            ],
            [
              240.0,
              66.5
            ],
            [
              241.0,
              66.5
            ],
            [
              241.5,
              67.0
            ],
            [
              242.0,
              67.5
            ],
            [
              242.5,
              67.0
            ],
            [
              243.0,
              66.5
            ],
            [
              244.0,
              66.5
            ],
            [
              244.5,
              66.0
            ],
            [
              245.0,
              65.5
            ],
            [
              246.0,
              65.5
            ],
            [
              247.0,
              65.5
            ],
            [
              248.0,
              65.5
            ],
            [
              249.0,
              65.5
            ],
            [
              249.5,
              65.0
            ],
            [
              250.0,
              64.5
            ],
            [
              250.5,
              65.0
            ],
            [
              251.0,
              65.5
            ],
            [
              252.0,
              65.5
            ],
            [
              253.0,
              65.5
            ],
            [
              254.0,
              65.5
            ],
            [
              255.0,
              65.5
            ],
            [
              255.5,
              66.0
            ],
            [
              256.0,
              66.5
            ],
            [
              257.0,
              66.5
            ],
            [
              257.5,
              67.0
            ],
            [
              258.0,
              67.5
            ],
            [
              259.0,
              67.5
            ],
            [
              259.5,
              68.0
            ],
            [
              260.0,
              68.5
            ],
            [
              260.5,
              69.0
            ],
            [
              261.0,
              69.5
            ],
            [
              261.5,
              70.0
            ],
            [
              262.0,
              70.5
            ],
            [
              262.5,
              71.0
            ],
            [
              262.5,
              72.0
            ],
            [
              263.0,
              72.5
            ],
            [
              263.5,
              73.0
            ],
            [
              263.5,
              74.0
            ],
            [
              264.0,
              74.5
            ],
            [
              264.5,
              75.0
            ],
            [
              264.5,
              76.0
            ],
            [
              264.5,
              77.0
            ],
            [
              264.5,
              78.0
            ],
            [
              264.5,
              79.0
            ],
            [
              265.0,
              79.5
            ],
            [
              265.5,
              80.0
            ],
            [
              265.0,
              80.5
            ],
            [
              264.5,
              81.0
            ],
            [
              264.5,
              82.0
            ],
            [
              264.5,
              83.0
            ],
            [
              264.5,
              84.0
            ],
            [
              264.5,
              85.0
            ],
            [
              264.0,
              85.5
            ],
            [
              263.5,
              86.0
            ],
            [
              263.5,
              87.0
            ],
            [
              263.0,
              87.5
            ],
            [
              262.5,
              88.0
            ],
            [
              262.5,
              89.0
            ],
            [
              262.0,
              89.5
            ],
            [
              261.5,
              90.0
            ],
            [
              261.0,
              90.5
            ],
            [
              260.5,
              91.0
            ],
            [
              260.0,
              91.5
            ],
            [
              259.5,
              92.0
            ],
            [
              259.0,
              92.5
            ],
            [
              258.0,
              92.5
            ],
            [
              257.5,
              93.0
            ],
            [
              257.0,
              93.5
            ],
            [
              256.0,
              93.5
            ],
            [
              255.5,
              94.0
            ],
            [
              255.0,
              94.5
            ],
            [
              254.0,
              94.5
            ],
            [
              253.0,
              94.5
            ],
            [
              252.0,
              94.5
            ],
            [
              251.0,
              94.5
            ],
            [
              250.5,
              95.0
            ],
            [
              250.0,
              95.5
            ]
          ]
        ]
      }
    },
    {
      "type": "Feature",
      "properties": {
        "block_id": 2,
        "area_pixels": 3853,
        "area_hectares": 3.47,
        "perimeter_pixels": 230.8,
        "centroid": [
          100.0,
          80.0
        ],
        "eccentricity": 0.0,
        "solidity": 0.982
      },
      "geometry": {
        "type": "Polygon",
        "coordinates": [
          [
            [
              100.0,
              115.5
            ],
            [
              99.5,
              115.0
            ],
            [
              99.0,
              114.5
            ],
            [
              98.0,
              114.5
            ],
            [
              97.0,
              114.5
            ],
            [
              96.0,
              114.5
            ],
            [
              95.0,
              114.5
            ],
            [
              94.0,
              114.5
            ],
            [
              93.0,
              114.5
            ],
            [
              92.0,
              114.5
            ],
            [
              91.5,
              114.0
            ],
            [
              91.0,
              113.5
            ],
            [
              90.0,
              113.5
            ],
            [
              89.0,
              113.5
            ],
            [
              88.5,
              113.0
            ],
            [
              88.0,
              112.5
            ],
            [
              87.0,
              112.5
            ],
            [
              86.0,
              112.5
            ],
            [
              85.5,
              112.0
            ],
            [
              85.0,
              111.5
            ],
            [
              84.0,
              111.5
            ],
            [
              83.5,
              111.0
            ],
            [
              83.0,
              110.5
            ],
            [
              82.0,
              110.5
            ],
            [
              81.5,
              110.0
            ],
            [
              81.0,
              109.5
            ],
            [
              80.5,
              109.0
            ],
            [
              80.0,
              108.5
            ],
            [
              79.0,
              108.5
            ],
            [
              78.5,
              108.0
            ],
            [
              78.0,
              107.5
            ],
            [
              77.5,
              107.0
            ],
            [
              77.0,
              106.5
            ],
            [
              76.5,
              106.0
            ],
            [
              76.0,
              105.5
            ],
            [
              75.5,
              105.0
            ],
            [
              75.0,
              104.5
            ],
            [
              74.5,
              104.0
            ],
            [
              74.0,
              103.5
            ],
            [
              73.5,
              103.0
            ],
            [
              73.0,
              102.5
            ],
            [
              72.5,
              102.0
            ],
            [
              72.0,
              101.5
            ],
            [
              71.5,
              101.0
            ],
            [
              71.5,
              100.0
            ],
            [
              71.0,
              99.5
            ],
            [
              70.5,
              99.0
            ],
            [
              70.0,
              98.5
            ],
            [
              69.5,
              98.0
            ],
            [
              69.5,
              97.0
            ],
            [
              69.0,
              96.5
            ],
            [
              68.5,
              96.0
            ],
            [
              68.5,
              95.0
            ],
            [
              68.0,
              94.5
            ],
            [
              67.5,
              94.0
            ],
            [
              67.5,
              93.0
            ],
            [
              67.5,
              92.0
            ],
            [
              67.0,
              91.5
            ],
            [
              66.5,
              91.0
            ],
            [
              66.5,
              90.0
            ],
            [
              66.5,
              89.0
            ],
            [
              66.0,
              88.5
            ],
            [
              65.5,
              88.0
            ],
            [
              65.5,
              87.0
            ],
            [
              65.5,
              86.0
            ],
            [
              65.5,
              85.0
            ],
            [
              65.5,
              84.0
            ],
            [
              65.5,
              83.0
            ],
            [
              65.5,
              82.0
            ],
            [
              65.5,
              81.0
            ],
            [
              65.0,
              80.5
            ],
            [
              64.5,
              80.0
            ],
            [
              65.0,
              79.5
            ],
            [
              65.5,
              79.0
            ],
            [
              65.5,
              78.0
            ],
            [
              65.5,
              77.0
            ],
            [
              65.5,
              76.0
            ],
            [
              65.5,
              75.0
            ],
            [
              65.5,
              74.0
            ],
            [
              65.5,
              73.0
            ],
            [
              65.5,
              72.0
            ],
            [
              66.0,
              71.5
            ],
            [
              66.5,
              71.0
            ],
            [
              66.5,
              70.0
            ],
            [
              66.5,
              69.0
            ],
            [
              67.0,
              68.5
            ],
            [
              67.5,
              68.0
            ],
            [
              67.5,
              67.0
            ],
            [
              67.5,
              66.0
            ],
            [
              68.0,
              65.5
            ],
            [
              68.5,
              65.0
            ],
            [
              68.5,
              64.0
            ],
            [
              69.0,
              63.5
            ],
            [
              69.5,
              63.0
            ],
            [
              69.5,
              62.0
            ],
            [
              70.0,
              61.5
            ],
            [
              70.5,
              61.0
            ],
            [
              71.0,
              60.5
            ],
            [
              71.5,
              60.0
            ],
            [
              71.5,
              59.0
            ],
            [
              72.0,
              58.5
            ],
            [
              72.5,
              58.0
            ],
            [
              73.0,
              57.5
            ],
            [
              73.5,
              57.0
            ],
            [
              74.0,
              56.5
            ],
            [
              74.5,
              56.0
            ],
            [
              75.0,
              55.5
            ],
            [
              75.5,
              55.0
            ],
            [
              76.0,
              54.5
            ],
            [
              76.5,
              54.0
            ],
            [
              77.0,
              53.5
            ],
            [
              77.5,
              53.0
            ],
            [
              78.0,
              52.5
            ],
            [
              78.5,
              52.0
            ],
            [
              79.0,
              51.5
            ],
            [
              80.0,
              51.5
            ],
            [
              80.5,
              51.0
            ],
            [
              81.0,
              50.5
            ],
            [
              81.5,
              50.0
            ],
            [
              82.0,
              49.5
            ],
            [
              83.0,
              49.5
            ],
            [
              83.5,
              49.0
            ],
            [
              84.0,
              48.5
            ],
            [
              85.0,
              48.5
            ],
            [
              85.5,
              48.0
            ],
            [
              86.0,
              47.5
            ],
            [
              87.0,
              47.5
            ],
            [
              88.0,
              47.5
            ],
            [
              88.5,
              47.0
            ],
            [
              89.0,
              46.5
            ],
            [
              90.0,
              46.5
            ],
            [
              91.0,
              46.5
            ],
            [
              91.5,
              46.0
            ],
            [
              92.0,
              45.5
            ],
            [
              93.0,
              45.5
            ],
            [
              94.0,
              45.5
            ],
            [
              95.0,
              45.5
            ],
            [
              96.0,
              45.5
            ],
            [
              97.0,
              45.5
            ],
            [
              98.0,
              45.5
            ],
            [
              99.0,
              45.5
            ],
            [
              99.5,
              45.0
            ],
            [
              100.0,
              44.5
            ],
            [
              100.5,
              45.0
            ],
            [
              101.0,
              45.5
            ],
            [
              102.0,
              45.5
            ],
            [
              103.0,
              45.5
            ],
            [
              104.0,
              45.5
            ],
            [
              105.0,
              45.5
            ],
            [
              106.0,
              45.5
            ],
            [
              107.0,
              45.5
            ],
            [
              108.0,
              45.5
            ],
            [
              108.5,
              46.0
            ],
            [
              109.0,
              46.5
            ],
            [
              110.0,
              46.5
            ],
            [
              111.0,
              46.5
            ],
            [
              111.5,
              47.0
            ],
            [
              112.0,
              47.5
            ],
            [
              113.0,
              47.5
            ],
            [
              114.0,
              47.5
            ],
            [
              114.5,
              48.0
            ],
            [
              115.0,
              48.5
            ],
            [
              116.0,
              48.5
            ],
            [
              116.5,
              49.0
            ],
            [
              117.0,
              49.5
            ],
            [
              118.0,
              49.5
            ],
            [
              118.5,
              50.0
            ],
            [
              119.0,
              50.5
            ],
            [
              119.5,
              51.0
            ],
            [
              120.0,
              51.5
            ],
            [
              121.0,
              51.5
            ],
            [
              121.5,
              52.0
            ],
            [
              122.0,
              52.5
            ],
            [
              122.5,
              53.0
            ],
            [
              123.0,
              53.5
            ],
            [
              123.5,
              54.0
            ],
            [
              124.0,
              54.5
            ],
            [
              124.5,
              55.0
            ],
            [
              125.0,
              55.5
            ],
            [
              125.5,
              56.0
            ],
            [
              126.0,
              56.5
            ],
            [
              126.5,
              57.0
            ],
            [
              127.0,
              57.5
            ],
            [
              127.5,
              58.0
            ],
            [
              128.0,
              58.5
            ],
            [
              128.5,
              59.0
            ],
            [
              128.5,
              60.0
            ],
            [
              129.0,
              60.5
            ],
            [
              129.5,
              61.0
            ],
            [
              130.0,
              61.5
            ],
            [
              130.5,
              62.0
            ],
            [
              130.5,
              63.0
            ],
            [
              131.0,
              63.5
            ],
            [
              131.5,
              64.0
            ],
            [
              131.5,
              65.0
            ],
            [
              132.0,
              65.5
            ],
            [
              132.5,
              66.0
            ],
            [
              132.5,
              67.0
            ],
            [
              132.5,
              68.0
            ],
            [
              133.0,
              68.5
            ],
            [
              133.5,
              69.0
            ],
            [
              133.5,
              70.0
            ],
            [
              133.5,
              71.0
            ],
            [
              134.0,
              71.5
            ],
            [
              134.5,
              72.0
            ],
            [
              134.5,
              73.0
            ],
            [
              134.5,
              74.0
            ],
            [
              134.5,
              75.0
            ],
            [
              134.5,
              76.0
            ],
            [
              134.5,
              77.0
            ],
            [
              134.5,
              78.0
            ],
            [
              134.5,
              79.0
            ],
            [
              135.0,
              79.5
            ],
            [
              135.5,
              80.0
            ],
            [
              135.0,
              80.5
            ],
            [
              134.5,
              81.0
            ],
            [
              134.5,
              82.0
            ],
            [
              134.5,
              83.0
            ],
            [
              134.5,
              84.0
            ],
            [
              134.5,
              85.0
            ],
            [
              134.5,
              86.0
            ],
            [
              134.5,
              87.0
            ],
            [
              134.5,
              88.0
            ],
            [
              134.0,
              88.5
            ],
            [
              133.5,
              89.0
            ],
            [
              133.5,
              90.0
            ],
            [
              133.5,
              91.0
            ],
            [
              133.0,
              91.5
            ],
            [
              132.5,
              92.0
            ],
            [
              132.5,
              93.0
            ],
            [
              132.5,
              94.0
            ],
            [
              132.0,
              94.5
            ],
            [
              131.5,
              95.0
            ],
            [
              131.5,
              96.0
            ],
            [
              131.0,
              96.5
            ],
            [
              130.5,
              97.0
            ],
            [
              130.5,
              98.0
            ],
            [
              130.0,
              98.5
            ],
            [
              129.5,
              99.0
            ],
            [
              129.0,
              99.5
            ],
            [
              128.5,
              100.0
            ],
            [
              128.5,
              101.0
            ],
            [
              128.0,
              101.5
            ],
            [
              127.5,
              102.0
            ],
            [
              127.0,
              102.5
            ],
            [
              126.5,
              103.0
            ],
            [
              126.0,
              103.5
            ],
            [
              125.5,
              104.0
            ],
            [
              125.0,
              104.5
            ],
            [
              124.5,
              105.0
            ],
            [
              124.0,
              105.5
            ],
            [
              123.5,
              106.0
            ],
            [
              123.0,
              106.5
            ],
            [
              122.5,
              107.0
            ],
            [
              122.0,
              107.5
            ],
            [
              121.5,
              108.0
            ],
            [
              121.0,
              108.5
            ],
            [
              120.0,
              108.5
            ],
            [
              119.5,
              109.0
            ],
            [
              119.0,
              109.5
            ],
            [
              118.5,
              110.0
            ],
            [
              118.0,
              110.5
            ],
            [
              117.0,
              110.5
            ],
            [
              116.5,
              111.0
            ],
            [
              116.0,
              111.5
            ],
            [
              115.0,
              111.5
            ],
            [
              114.5,
              112.0
            ],
            [
              114.0,
              112.5
            ],
            [
              113.0,
              112.5
            ],
            [
              112.0,
              112.5
            ],
            [
              111.5,
              113.0
            ],
            [
              111.0,
              113.5
            ],
            [
              110.0,
              113.5
            ],
            [
              109.0,
              113.5
            ],
            [
              108.5,
              114.0
            ],
            [
              108.0,
              114.5
            ],
            [
              107.0,
              114.5
            ],
            [
              106.0,
              114.5
            ],
            [
              105.0,
              114.5
            ],
            [
              104.0,
              114.5
            ],
            [
              103.0,
              114.5
            ],
            [
              102.0,
              114.5
            ],
            [
              101.0,
              114.5
            ],
            [
              100.5,
              115.0
            ],
            [
              100.0,
              115.5
            ]
          ]
        ]
      }
    },
    {
      "type": "Feature",
      "properties": {
        "block_id": 3,
        "area_pixels": 2453,
        "area_hectares": 2.21,
        "perimeter_pixels": 184.2,
        "centroid": [
          200.0,
          150.0
        ],
        "eccentricity": 0.0,
        "solidity": 0.978
      },
      "geometry": {
        "type": "Polygon",
        "coordinates": [
          [
            [
              200.0,
              178.5
            ],
            [
              199.5,
              178.0
            ],
            [
              199.0,
              177.5
            ],
            [
              198.0,
              177.5
            ],
            [
              197.0,
              177.5
            ],
            [
              196.0,
              177.5
            ],
            [
              195.0,
              177.5
            ],
            [
              194.0,
              177.5
            ],
            [
              193.0,
              177.5
            ],
            [
              192.5,
              177.0
            ],
            [
              192.0,
              176.5
            ],
            [
              191.0,
              176.5
            ],
            [
              190.0,
              176.5
            ],
            [
              189.5,
              176.0
            ],
            [
              189.0,
              175.5
            ],
            [
              188.0,
              175.5
            ],
            [
              187.5,
              175.0
            ],
            [
              187.0,
              174.5
            ],
            [
              186.0,
              174.5
            ],
            [
              185.5,
              174.0
            ],
            [
              185.0,
              173.5
            ],
            [
              184.5,
              173.0
            ],
            [
              184.0,
              172.5
            ],
            [
              183.0,
              172.5
            ],
            [
              182.5,
              172.0
            ],
            [
              182.0,
              171.5
            ],
            [
              181.5,
              171.0
            ],
            [
              181.0,
              170.5
            ],
            [
              180.5,
              170.0
            ],
            [
              180.0,
              169.5
            ],
            [
              179.5,
              169.0
            ],
            [
              179.0,
              168.5
            ],
            [
              178.5,
              168.0
            ],
            [
              178.0,
              167.5
            ],
            [
              177.5,
              167.0
            ],
            [
              177.5,
              166.0
            ],
            [
              177.0,
              165.5
            ],
            [
              176.5,
              165.0
            ],
            [
              176.0,
              164.5
            ],
            [
              175.5,
              164.0
            ],
            [
              175.5,
              163.0
            ],
            [
              175.0,
              162.5
            ],
            [
              174.5,
              162.0
            ],
            [
              174.5,
              161.0
            ],
            [
              174.0,
              160.5
            ],
            [
              173.5,
              160.0
            ],
            [
              173.5,
              159.0
            ],
            [
              173.5,
              158.0
            ],
            [
              173.0,
              157.5
            ],
            [
              172.5,
              157.0
            ],
            [
              172.5,
              156.0
            ],
            [
              172.5,
              155.0
            ],
            [
              172.5,
              154.0
            ],
            [
              172.5,
              153.0
            ],
            [
              172.5,
              152.0
            ],
            [
              172.5,
              151.0
            ],
            [
              172.0,
              150.5
            ],
            [
              171.5,
              150.0
            ],
            [
              172.0,
              149.5
            ],
            [
              172.5,
              149.0
            ],
            [
              172.5,
              148.0
            ],
            [
              172.5,
              147.0
            ],
            [
              172.5,
              146.0
            ],
            [
              172.5,
              145.0
            ],
            [
              172.5,
              144.0
            ],
            [
              172.5,
              143.0
            ],
            [
              173.0,
              142.5
            ],
            [
              173.5,
              142.0
            ],
            [
              173.5,
              141.0
            ],
            [
              173.5,
              140.0
            ],
            [
              174.0,
              139.5
            ],
            [
              174.5,
              139.0
            ],
            [
              174.5,
              138.0
            ],
            [
              175.0,
              137.5
            ],
            [
              175.5,
              137.0
            ],
            [
              175.5,
              136.0
            ],
            [
              176.0,
              135.5
            ],
            [
              176.5,
              135.0
            ],
            [
              177.0,
              134.5
            ],
            [
              177.5,
              134.0
            ],
            [
              177.5,
              133.0
            ],
            [
              178.0,
              132.5
            ],
            [
              178.5,
              132.0
            ],
            [
              179.0,
              131.5
            ],
            [
              179.5,
              131.0
            ],
            [
              180.0,
              130.5
            ],
            [
              180.5,
              130.0
            ],
            [
              181.0,
              129.5
            ],
            [
              181.5,
              129.0
            ],
            [
              182.0,
              128.5
            ],
            [
              182.5,
              128.0
            ],
            [
              183.0,
              127.5
            ],
            [
              184.0,
              127.5
            ],
            [
              184.5,
              127.0
            ],
            [
              185.0,
              126.5
            ],
            [
              185.5,
              126.0
            ],
            [
              186.0,
              125.5
            ],
            [
              187.0,
              125.5
            ],
            [
              187.5,
              125.0
            ],
            [
              188.0,
              124.5
            ],
            [
              189.0,
              124.5
            ],
            [
              189.5,
              124.0
            ],
            [
              190.0,
              123.5
            ],
            [
              191.0,
              123.5
            ],
            [
              192.0,
              123.5
            ],
            [
              192.5,
              123.0
            ],
            [
              193.0,
              122.5
            ],
            [
              194.0,
              122.5
            ],
            [
              195.0,
              122.5
            ],
            [
              196.0,
              122.5
            ],
            [
              197.0,
              122.5
            ],
            [
              198.0,
              122.5
            ],
            [
              199.0,
              122.5
            ],
            [
              199.5,
              122.0
            ],
            [
              200.0,
              121.5
            ],
            [
              200.5,
              122.0
            ],
            [
              201.0,
              122.5
            ],
            [
              202.0,
              122.5
            ],
            [
              203.0,
              122.5
            ],
            [
              204.0,
              122.5
            ],
            [
              205.0,
              122.5
            ],
            [
              206.0,
              122.5
            ],
            [
              207.0,
              122.5
            ],
            [
              207.5,
              123.0
            ],
            [
              208.0,
              123.5
            ],
            [
              209.0,
              123.5
            ],
            [
              210.0,
              123.5
            ],
            [
              210.5,
              124.0
            ],
            [
              211.0,
              124.5
            ],
            [
              212.0,
              124.5
            ],
            [
              212.5,
              125.0
            ],
            [
              213.0,
              125.5
            ],
            [
              214.0,
              125.5
            ],
            [
              214.5,
              126.0
            ],
            [
              215.0,
              126.5
            ],
            [
              215.5,
              127.0
            ],
            [
              216.0,
              127.5
            ],
            [
              217.0,
              127.5
            ],
            [
              217.5,
              128.0
            ],
            [
              218.0,
              128.5
            ],
            [
              218.5,
              129.0
            ],
            [
              219.0,
              129.5
            ],
            [
              219.5,
              130.0
            ],
            [
              220.0,
              130.5
            ],
            [
              220.5,
              131.0
            ],
            [
              221.0,
              131.5
            ],
            [
              221.5,
              132.0
            ],
            [
              222.0,
              132.5
            ],
            [
              222.5,
              133.0
            ],
            [
              222.5,
              134.0
            ],
            [
              223.0,
              134.5
            ],
            [
              223.5,
              135.0
            ],
            [
              224.0,
              135.5
            ],
            [
              224.5,
              136.0
            ],
            [
              224.5,
              137.0
            ],
            [
              225.0,
              137.5
            ],
            [
              225.5,
              138.0
            ],
            [
              225.5,
              139.0
            ],
            [
              226.0,
              139.5
            ],
            [
              226.5,
              140.0
            ],
            [
              226.5,
              141.0
            ],
            [
              226.5,
              142.0
            ],
            [
              227.0,
              142.5
            ],
            [
              227.5,
              143.0
            ],
            [
              227.5,
              144.0
            ],
            [
              227.5,
              145.0
            ],
            [
              227.5,
              146.0
            ],
            [
              227.5,
              147.0
            ],
            [
              227.5,
              148.0
            ],
            [
              227.5,
              149.0
            ],
            [
              228.0,
              149.5
            ],
            [
              228.5,
              150.0
            ],
            [
              228.0,
              150.5
            ],
            [
              227.5,
              151.0
            ],
            [
              227.5,
              152.0
            ],
            [
              227.5,
              153.0
            ],
            [
              227.5,
              154.0
            ],
            [
              227.5,
              155.0
            ],
            [
              227.5,
              156.0
            ],
            [
              227.5,
              157.0
            ],
            [
              227.0,
              157.5
            ],
            [
              226.5,
              158.0
            ],
            [
              226.5,
              159.0
            ],
            [
              226.5,
              160.0
            ],
            [
              226.0,
              160.5
            ],
            [
              225.5,
              161.0
            ],
            [
              225.5,
              162.0
            ],
            [
              225.0,
              162.5
            ],
            [
              224.5,
              163.0
            ],
            [
              224.5,
              164.0
            ],
            [
              224.0,
              164.5
            ],
            [
              223.5,
              165.0
            ],
            [
              223.0,
              165.5
            ],
            [
              222.5,
              166.0
            ],
            [
              222.5,
              167.0
            ],
            [
              222.0,
              167.5
            ],
            [
              221.5,
              168.0
            ],
            [
              221.0,
              168.5
            ],
            [
              220.5,
              169.0
            ],
            [
              220.0,
              169.5
            ],
            [
              219.5,
              170.0
            ],
            [
              219.0,
              170.5
            ],
            [
              218.5,
              171.0
            ],
            [
              218.0,
              171.5
            ],
            [
              217.5,
              172.0
            ],
            [
              217.0,
              172.5
            ],
            [
              216.0,
              172.5
            ],
            [
              215.5,
              173.0
            ],
            [
              215.0,
              173.5
            ],
            [
              214.5,
              174.0
            ],
            [
              214.0,
              174.5
            ],
            [
              213.0,
              174.5
            ],
            [
              212.5,
              175.0
            ],
            [
              212.0,
              175.5
            ],
            [
              211.0,
              175.5
            ],
            [
              210.5,
              176.0
            ],
            [
              210.0,
              176.5
            ],
            [
              209.0,
              176.5
            ],
            [
              208.0,
              176.5
            ],
            [
              207.5,
              177.0
            ],
            [
              207.0,
              177.5
            ],
            [
              206.0,
              177.5
            ],
            [
              205.0,
              177.5
            ],
            [
              204.0,
              177.5
            ],
            [
              203.0,
              177.5
            ],
            [
              202.0,
              177.5
            ],
            [
              201.0,
              177.5
            ],
            [
              200.5,
              178.0
            ],
            [
              200.0,
              178.5
            ]
          ]
        ]
      }
    },
    {
      "type": "Feature",
      "properties": {
        "block_id": 4,
        "area_pixels": 1257,
        "area_hectares": 1.13,
        "perimeter_pixels": 131.9,
        "centroid": [
          150.0,
          220.0
        ],
        "eccentricity": 0.0,
        "solidity": 0.963
      },
      "geometry": {
        "type": "Polygon",
        "coordinates": [
          [
            [
              150.0,
              240.5
            ],
            [
              149.5,
              240.0
            ],
            [
              149.0,
              239.5
            ],
            [
              148.0,
              239.5
            ],
            [
              147.0,
              239.5
            ],
            [
              146.0,
              239.5
            ],
            [
              145.0,
              239.5
            ],
            [
              144.0,
              239.5
            ],
            [
              143.5,
              239.0
            ],
            [
              143.0,
              238.5
            ],
            [
              142.0,
              238.5
            ],
            [
              141.5,
              238.0
            ],
            [
              141.0,
              237.5
            ],
            [
              140.0,
              237.5
            ],
            [
              139.5,
              237.0
            ],
            [
              139.0,
              236.5
            ],
            [
              138.0,
              236.5
            ],
            [
              137.5,
              236.0
            ],
            [
              137.0,
              235.5
            ],
            [
              136.5,
              235.0
            ],
            [
              136.0,
              234.5
            ],
            [
              135.5,
              234.0
            ],
            [
              135.0,
              233.5
            ],
            [
              134.5,
              233.0
            ],
            [
              134.0,
              232.5
            ],
            [
              133.5,
              232.0
            ],
            [
              133.5,
              231.0
            ],
            [
              133.0,
              230.5
            ],
            [
              132.5,
              230.0
            ],
            [
              132.5,
              229.0
            ],
            [
              132.0,
              228.5
            ],
            [
              131.5,
              228.0
            ],
            [
              131.5,
              227.0
            ],
            [
              131.0,
              226.5
            ],
            [
              130.5,
              226.0
            ],
            [
              130.5,
              225.0
            ],
            [
              130.5,
              224.0
            ],
            [
              130.5,
              223.0
            ],
            [
              130.5,
              222.0
            ],
            [
              130.5,
              221.0
            ],
            [
              130.0,
              220.5
            ],
            [
              129.5,
              220.0
            ],
            [
              130.0,
              219.5
            ],
            [
              130.5,
              219.0
            ],
            [
              130.5,
              218.0
            ],
            [
              130.5,
              217.0
            ],
            [
              130.5,
              216.0
            ],
            [
              130.5,
              215.0
            ],
            [
              130.5,
              214.0
            ],
            [
              131.0,
              213.5
            ],
            [
              131.5,
              213.0
            ],
            [
              131.5,
              212.0
            ],
            [
              132.0,
              211.5
            ],
            [
              132.5,
              211.0
            ],
            [
              132.5,
              210.0
            ],
            [
              133.0,
              209.5
            ],
            [
              133.5,
              209.0
            ],
            [
              133.5,
              208.0
            ],
            [
              134.0,
              207.5
            ],
            [
              134.5,
              207.0
            ],
            [
              135.0,
              206.5
            ],
            [
              135.5,
              206.0
            ],
            [
              136.0,
              205.5
            ],
            [
              136.5,
              205.0
            ],
            [
              137.0,
              204.5
            ],
            [
              137.5,
              204.0
            ],
            [
              138.0,
              203.5
            ],
            [
              139.0,
              203.5
            ],
            [
              139.5,
              203.0
            ],
            [
              140.0,
              202.5
            ],
            [
              141.0,
              202.5
            ],
            [
              141.5,
              202.0
            ],
            [
              142.0,
              201.5
            ],
            [
              143.0,
              201.5
            ],
            [
              143.5,
              201.0
            ],
            [
              144.0,
              200.5
            ],
            [
              145.0,
              200.5
            ],
            [
              146.0,
              200.5
            ],
            [
              147.0,
              200.5
            ],
            [
              148.0,
              200.5
            ],
            [
              149.0,
              200.5
            ],
            [
              149.5,
              200.0
            ],
            [
              150.0,
              199.5
            ],
            [
              150.5,
              200.0
            ],
            [
              151.0,
              200.5
            ],
            [
              152.0,
              200.5
            ],
            [
              153.0,
              200.5
            ],
            [
              154.0,
              200.5
            ],
            [
              155.0,
              200.5
            ],
            [
              156.0,
              200.5
            ],
            [
              156.5,
              201.0
            ],
            [
              157.0,
              201.5
            ],
            [
              158.0,
              201.5
            ],
            [
              158.5,
              202.0
            ],
            [
              159.0,
              202.5
            ],
            [
              160.0,
              202.5
            ],
            [
              160.5,
              203.0
            ],
            [
              161.0,
              203.5
            ],
            [
              162.0,
              203.5
            ],
            [
              162.5,
              204.0
            ],
            [
              163.0,
              204.5
            ],
            [
              163.5,
              205.0
            ],
            [
              164.0,
              205.5
            ],
            [
              164.5,
              206.0
            ],
            [
              165.0,
              206.5
            ],
            [
              165.5,
              207.0
            ],
            [
              166.0,
              207.5
            ],
            [
              166.5,
              208.0
            ],
            [
              166.5,
              209.0
            ],
            [
              167.0,
              209.5
            ],
            [
              167.5,
              210.0
            ],
            [
              167.5,
              211.0
            ],
            [
              168.0,
              211.5
            ],
            [
              168.5,
              212.0
            ],
            [
              168.5,
              213.0
            ],
            [
              169.0,
              213.5
            ],
            [
              169.5,
              214.0
            ],
            [
              169.5,
              215.0
            ],
            [
              169.5,
              216.0
            ],
            [
              169.5,
              217.0
            ],
            [
              169.5,
              218.0
            ],
            [
              169.5,
              219.0
            ],
            [
              170.0,
              219.5
            ],
            [
              170.5,
              220.0
            ],
            [
              170.0,
              220.5
            ],
            [
              169.5,
              221.0
            ],
            [
              169.5,
              222.0
            ],
            [
              169.5,
              223.0
            ],
            [
              169.5,
              224.0
            ],
            [
              169.5,
              225.0
            ],
            [
              169.5,
              226.0
            ],
            [
              169.0,
              226.5
            ],
            [
              168.5,
              227.0
            ],
            [
              168.5,
              228.0
            ],
            [
              168.0,
              228.5
            ],
            [
              167.5,
              229.0
            ],
            [
              167.5,
              230.0
            ],
            [
              167.0,
              230.5
            ],
            [
              166.5,
              231.0
            ],
            [
              166.5,
              232.0
            ],
            [
              166.0,
              232.5
            ],
            [
              165.5,
              233.0
            ],
            [
              165.0,
              233.5
            ],
            [
              164.5,
              234.0
            ],
            [
              164.0,
              234.5
            ],
            [
              163.5,
              235.0
            ],
            [
              163.0,
              235.5
            ],
            [
              162.5,
              236.0
            ],
            [
              162.0,
              236.5
            ],
            [
              161.0,
              236.5
            ],
            [
              160.5,
              237.0
            ],
            [
              160.0,
              237.5
            ],
            [
              159.0,
              237.5
            ],
            [
              158.5,
              238.0
            ],
            [
              158.0,
              238.5
            ],
            [
              157.0,
              238.5
            ],
            [
              156.5,
              239.0
            ],
            [
              156.0,
              239.5
            ],
            [
              155.0,
              239.5
            ],
            [
              154.0,
              239.5
            ],
            [
              153.0,
              239.5
            ],
            [
              152.0,
              239.5
            ],
            [
              151.0,
              239.5
            ],
            [
              150.5,
              240.0
            ],
            [
              150.0,
              240.5
            ]
          ]
        ]
      }
    }
  ]
}